[{"OBJECT_NAME":"STARLINK-34573","OBJECT_ID":"2025-139N","EPOCH":"2026-03-09T09:37:36.765408","MEAN_MOTION":15.30201397,"ECCENTRICITY":0.00011304,"INCLINATION":53.1576,"RA_OF_ASC_NODE":128.1133,"ARG_OF_PERICENTER":100.9056,"MEAN_ANOMALY":259.2072,"EPHEMERIS_TYPE":0,"CLASSIFICATION_TYPE":"U","NORAD_CAT_ID":64676,"ELEMENT_SET_NO":999,"REV_AT_EPOCH":4024,"BSTAR":0.00055579917,"MEAN_MOTION_DOT":0.00016139,"MEAN_MOTION_DDOT":0},{"OBJECT_NAME":"CZ-6A DEB","OBJECT_ID":"2022-151QB","EPOCH":"2026-03-08T18:03:47.471328","MEAN_MOTION":15.32168285,"ECCENTRICITY":0.00205863,"INCLINATION":98.6246,"RA_OF_ASC_NODE":151.4486,"ARG_OF_PERICENTER":181.9757,"MEAN_ANOMALY":178.1404,"EPHEMERIS_TYPE":0,"CLASSIFICATION_TYPE":"U","NORAD_CAT_ID":54890,"ELEMENT_SET_NO":999,"REV_AT_EPOCH":17659,"BSTAR":0.012866954,"MEAN_MOTION_DOT":0.00424465,"MEAN_MOTION_DDOT":0}]
